{
  "type": "FeatureCollection",
  "features": [
    {
      "type": "Feature",
      "properties": {
        "norad_id": 66954,
        "name": "HULIANWANG DIGUI-115",
        "group": "last-30-days",
        "lat": 0.04839948931293509,
        "lon": -18.08251075317515,
        "alt_km": 1021.666765492465,
        "timestamp": "2025-12-24T09:46:29.717391+00:00",
        "meta_object_name": "HULIANWANG DIGUI-115",
        "meta_object_id": "2025-287B",
        "meta_epoch": "2025-12-20T14:23:56.755680",
        "meta_mean_motion": 13.66603826,
        "meta_eccentricity": 0.00094984,
        "meta_inclination": 86.4975,
        "meta_ra_of_asc_node": 343.2967,
        "meta_arg_of_pericenter": 182.0064,
        "meta_mean_anomaly": 178.1058,
        "meta_ephemeris_type": 0,
        "meta_classification_type": "U",
        "meta_norad_cat_id": 66954,
        "meta_element_set_no": 999,
        "meta_rev_at_epoch": 160,
        "meta_bstar": -9.79328e-07,
        "meta_mean_motion_dot": 1.6e-07,
        "meta_mean_motion_ddot": 0,
        "tle_line1": "1 66954U 25287B   25354.59996245  .00000016  00000+0 -97933-6 0  9996",
        "tle_line2": "2 66954  86.4975 343.2967 0009498 182.0064 178.1058 13.66603826  1604"
      },
      "geometry": {
        "type": "Point",
        "coordinates": [
          -18.08251075317515,
          0.04839948931293509
        ]
      }
    },
    {
      "type": "Feature",
      "properties": {
        "norad_id": 66955,
        "name": "HULIANWANG DIGUI-116",
        "group": "last-30-days",
        "lat": 11.901920015524794,
        "lon": -17.362803593868296,
        "alt_km": 1017.2253161973467,
        "timestamp": "2025-12-24T09:46:29.717401+00:00",
        "meta_object_name": "HULIANWANG DIGUI-116",
        "meta_object_id": "2025-287C",
        "meta_epoch": "2025-12-20T16:07:29.631072",
        "meta_mean_motion": 13.67009251,
        "meta_eccentricity": 0.00086607,
        "meta_inclination": 86.4918,
        "meta_ra_of_asc_node": 343.2556,
        "meta_arg_of_pericenter": 174.268,
        "meta_mean_anomaly": 185.8579,
        "meta_ephemeris_type": 0,
        "meta_classification_type": "U",
        "meta_norad_cat_id": 66955,
        "meta_element_set_no": 999,
        "meta_rev_at_epoch": 161,
        "meta_bstar": 0.00012368885,
        "meta_mean_motion_dot": 1.2e-06,
        "meta_mean_motion_ddot": 0,
        "tle_line1": "1 66955U 25287C   25354.67187073  .00000120  00000+0  12369-3 0  9999",
        "tle_line2": "2 66955  86.4918 343.2556 0008660 174.2680 185.8579 13.67009251  1610"
      },
      "geometry": {
        "type": "Point",
        "coordinates": [
          -17.362803593868296,
          11.901920015524794
        ]
      }
    },
    {
      "type": "Feature",
      "properties": {
        "norad_id": 66956,
        "name": "HULIANWANG DIGUI-117",
        "group": "last-30-days",
        "lat": 31.215904043078208,
        "lon": -15.964991064904881,
        "alt_km": 1009.3611808065907,
        "timestamp": "2025-12-24T09:46:29.717411+00:00",
        "meta_object_name": "HULIANWANG DIGUI-117",
        "meta_object_id": "2025-287D",
        "meta_epoch": "2025-12-18T14:55:12.079776",
        "meta_mean_motion": 13.67770338,
        "meta_eccentricity": 0.00076767,
        "meta_inclination": 86.4971,
        "meta_ra_of_asc_node": 344.0126,
        "meta_arg_of_pericenter": 176.3616,
        "meta_mean_anomaly": 183.76,
        "meta_ephemeris_type": 0,
        "meta_classification_type": "U",
        "meta_norad_cat_id": 66956,
        "meta_element_set_no": 999,
        "meta_rev_at_epoch": 133,
        "meta_bstar": 1.0922436e-05,
        "meta_mean_motion_dot": 2.6e-07,
        "meta_mean_motion_ddot": 0,
        "tle_line1": "1 66956U 25287D   25352.62166759  .00000026  00000+0  10922-4 0  9990",
        "tle_line2": "2 66956  86.4971 344.0126 0007676 176.3616 183.7600 13.67770338  1332"
      },
      "geometry": {
        "type": "Point",
        "coordinates": [
          -15.964991064904881,
          31.215904043078208
        ]
      }
    },
    {
      "type": "Feature",
      "properties": {
        "norad_id": 66957,
        "name": "HULIANWANG DIGUI-118",
        "group": "last-30-days",
        "lat": 32.538995616111485,
        "lon": -15.855528456028635,
        "alt_km": 1009.1002138675567,
        "timestamp": "2025-12-24T09:46:29.717421+00:00",
        "meta_object_name": "HULIANWANG DIGUI-118",
        "meta_object_id": "2025-287E",
        "meta_epoch": "2025-12-21T00:50:13.849728",
        "meta_mean_motion": 13.6751011,
        "meta_eccentricity": 0.00054729,
        "meta_inclination": 86.4946,
        "meta_ra_of_asc_node": 343.1304,
        "meta_arg_of_pericenter": 170.9065,
        "meta_mean_anomaly": 189.2194,
        "meta_ephemeris_type": 0,
        "meta_classification_type": "U",
        "meta_norad_cat_id": 66957,
        "meta_element_set_no": 999,
        "meta_rev_at_epoch": 166,
        "meta_bstar": 0.00013223305,
        "meta_mean_motion_dot": 1.28e-06,
        "meta_mean_motion_ddot": 0,
        "tle_line1": "1 66957U 25287E   25355.03488252  .00000128  00000+0  13223-3 0  9993",
        "tle_line2": "2 66957  86.4946 343.1304 0005472 170.9065 189.2194 13.67510110  1668"
      },
      "geometry": {
        "type": "Point",
        "coordinates": [
          -15.855528456028635,
          32.538995616111485
        ]
      }
    },
    {
      "type": "Feature",
      "properties": {
        "norad_id": 66958,
        "name": "CZ-6A R/B",
        "group": "last-30-days",
        "lat": 60.892796654591415,
        "lon": -12.035578255785474,
        "alt_km": 827.8731975996352,
        "timestamp": "2025-12-24T09:46:29.717433+00:00",
        "meta_object_name": "CZ-6A R/B",
        "meta_object_id": "2025-287F",
        "meta_epoch": "2025-12-23T23:09:30.568896",
        "meta_mean_motion": 13.94921308,
        "meta_eccentricity": 0.01071558,
        "meta_inclination": 86.5064,
        "meta_ra_of_asc_node": 341.8332,
        "meta_arg_of_pericenter": 68.4168,
        "meta_mean_anomaly": 292.8383,
        "meta_ephemeris_type": 0,
        "meta_classification_type": "U",
        "meta_norad_cat_id": 66958,
        "meta_element_set_no": 999,
        "meta_rev_at_epoch": 210,
        "meta_bstar": 2.9366648e-05,
        "meta_mean_motion_dot": 6e-07,
        "meta_mean_motion_ddot": 0,
        "tle_line1": "1 66958U 25287F   25357.96493714  .00000060  00000+0  29367-4 0  9999",
        "tle_line2": "2 66958  86.5064 341.8332 0107155  68.4168 292.8383 13.94921308  2109"
      },
      "geometry": {
        "type": "Point",
        "coordinates": [
          -12.035578255785474,
          60.892796654591415
        ]
      }
    },
    {
      "type": "Feature",
      "properties": {
        "norad_id": 66959,
        "name": "STARLINK-35887",
        "group": "last-30-days",
        "lat": -19.39661534947579,
        "lon": -61.858180940987964,
        "alt_km": 362.9815090562388,
        "timestamp": "2025-12-24T09:46:29.717443+00:00",
        "meta_object_name": "STARLINK-35887",
        "meta_object_id": "2025-288A",
        "meta_epoch": "2025-12-24T04:00:01.998720",
        "meta_mean_motion": 15.70163933,
        "meta_eccentricity": 0.0001328,
        "meta_inclination": 43,
        "meta_ra_of_asc_node": 97.39,
        "meta_arg_of_pericenter": 273.4295,
        "meta_mean_anomaly": 14.4468,
        "meta_ephemeris_type": 0,
        "meta_classification_type": "U",
        "meta_norad_cat_id": 66959,
        "meta_element_set_no": 999,
        "meta_rev_at_epoch": 366,
        "meta_bstar": -0.017517,
        "meta_mean_motion_dot": -0.01934792,
        "meta_mean_motion_ddot": 0,
        "tle_line1": "1 66959U 25288A   25358.16668980 -.01934792  00000+0 -17517-1 0  9995",
        "tle_line2": "2 66959  43.0000  97.3900 0001328 273.4295  14.4468 15.70163933  3668"
      },
      "geometry": {
        "type": "Point",
        "coordinates": [
          -61.858180940987964,
          -19.39661534947579
        ]
      }
    },
    {
      "type": "Feature",
      "properties": {
        "norad_id": 66960,
        "name": "STARLINK-35879",
        "group": "last-30-days",
        "lat": -20.596959823587444,
        "lon": -60.27872481858485,
        "alt_km": 362.9005532303281,
        "timestamp": "2025-12-24T09:46:29.717454+00:00",
        "meta_object_name": "STARLINK-35879",
        "meta_object_id": "2025-288B",
        "meta_epoch": "2025-12-24T04:00:01.998720",
        "meta_mean_motion": 15.70160353,
        "meta_eccentricity": 0.0001405,
        "meta_inclination": 43,
        "meta_ra_of_asc_node": 97.3847,
        "meta_arg_of_pericenter": 266.7279,
        "meta_mean_anomaly": 23.0621,
        "meta_ephemeris_type": 0,
        "meta_classification_type": "U",
        "meta_norad_cat_id": 66960,
        "meta_element_set_no": 999,
        "meta_rev_at_epoch": 366,
        "meta_bstar": -0.017404,
        "meta_mean_motion_dot": -0.0192356,
        "meta_mean_motion_ddot": 0,
        "tle_line1": "1 66960U 25288B   25358.16668980 -.01923560  00000+0 -17404-1 0  9993",
        "tle_line2": "2 66960  43.0000  97.3847 0001405 266.7279  23.0621 15.70160353  3663"
      },
      "geometry": {
        "type": "Point",
        "coordinates": [
          -60.27872481858485,
          -20.596959823587444
        ]
      }
    }
  ]
}